{"type": "FeatureCollection", "features": [{"type": "Feature", "properties": {"norad_id": 22490, "name": "SCD 1", "group": "resource", "lat": -10.903134173608999, "lon": 143.70973470954831, "alt_km": 734.3317636557395, "timestamp": "2025-12-09T09:46:47.303293+00:00", "meta": {"OBJECT_NAME": "SCD 1", "OBJECT_ID": "1993-009B", "EPOCH": "2025-12-08T23:07:00.314976", "MEAN_MOTION": 14.45994504, "ECCENTRICITY": 0.00417249, "INCLINATION": 24.9705, "RA_OF_ASC_NODE": 302, "ARG_OF_PERICENTER": 284.8731, "MEAN_ANOMALY": 124.6817, "EPHEMERIS_TYPE": 0, "CLASSIFICATION_TYPE": "U", "NORAD_CAT_ID": 22490, "ELEMENT_SET_NO": 999, "REV_AT_EPOCH": 73355, "BSTAR": 0.0001506552, "MEAN_MOTION_DOT": 7.37e-06, "MEAN_MOTION_DDOT": 0}, "tle": {"line1": "1 22490U 93009B   25342.96319809  .00000737  00000+0  15066-3 0  9996", "line2": "2 22490  24.9705 302.0000 0041724 284.8731 124.6817 14.45994504733559"}}, "geometry": {"type": "Point", "coordinates": [143.70973470954831, -10.903134173608999]}}, {"type": "Feature", "properties": {"norad_id": 25397, "name": "TECHSAT 1B (GO-32)", "group": "resource", "lat": 11.454207925385717, "lon": -35.29584499905069, "alt_km": 810.9136855508877, "timestamp": "2025-12-09T09:46:47.303321+00:00", "meta": {"OBJECT_NAME": "TECHSAT 1B (GO-32)", "OBJECT_ID": "1998-043D", "EPOCH": "2025-12-08T21:55:27.338304", "MEAN_MOTION": 14.24375251, "ECCENTRICITY": 0.0002145, "INCLINATION": 98.9915, "RA_OF_ASC_NODE": 326.0373, "ARG_OF_PERICENTER": 63.4685, "MEAN_ANOMALY": 296.6713, "EPHEMERIS_TYPE": 0, "CLASSIFICATION_TYPE": "U", "NORAD_CAT_ID": 25397, "ELEMENT_SET_NO": 999, "REV_AT_EPOCH": 42424, "BSTAR": 8.5480928e-05, "MEAN_MOTION_DOT": 1.51e-06, "MEAN_MOTION_DDOT": 0}, "tle": {"line1": "1 25397U 98043D   25342.91351086  .00000151  00000+0  85481-4 0  9995", "line2": "2 25397  98.9915 326.0373 0002145  63.4685 296.6713 14.24375251424241"}}, "geometry": {"type": "Point", "coordinates": [-35.29584499905069, 11.454207925385717]}}, {"type": "Feature", "properties": {"norad_id": 25504, "name": "SCD 2", "group": "resource", "lat": -22.69264596055454, "lon": 46.29155045555632, "alt_km": 731.0613199962318, "timestamp": "2025-12-09T09:46:47.303338+00:00", "meta": {"OBJECT_NAME": "SCD 2", "OBJECT_ID": "1998-060A", "EPOCH": "2025-12-08T21:41:28.158432", "MEAN_MOTION": 14.45419789, "ECCENTRICITY": 0.00165885, "INCLINATION": 24.9931, "RA_OF_ASC_NODE": 165.5501, "ARG_OF_PERICENTER": 272.5598, "MEAN_ANOMALY": 227.2256, "EPHEMERIS_TYPE": 0, "CLASSIFICATION_TYPE": "U", "NORAD_CAT_ID": 25504, "ELEMENT_SET_NO": 999, "REV_AT_EPOCH": 43276, "BSTAR": 0.00010877418, "MEAN_MOTION_DOT": 5.72e-06, "MEAN_MOTION_DDOT": 0}, "tle": {"line1": "1 25504U 98060A   25342.90379813  .00000572  00000+0  10877-3 0  9994", "line2": "2 25504  24.9931 165.5501 0016588 272.5598 227.2256 14.45419789432765"}}, "geometry": {"type": "Point", "coordinates": [46.29155045555632, -22.69264596055454]}}, {"type": "Feature", "properties": {"norad_id": 25757, "name": "DLR-TUBSAT", "group": "resource", "lat": -72.8047558282147, "lon": 118.32912085495903, "alt_km": 719.2343305757968, "timestamp": "2025-12-09T09:46:47.303351+00:00", "meta": {"OBJECT_NAME": "DLR-TUBSAT", "OBJECT_ID": "1999-029B", "EPOCH": "2025-12-08T22:41:18.524256", "MEAN_MOTION": 14.52355241, "ECCENTRICITY": 0.00136859, "INCLINATION": 98.656, "RA_OF_ASC_NODE": 327.3421, "ARG_OF_PERICENTER": 204.6549, "MEAN_ANOMALY": 155.3993, "EPHEMERIS_TYPE": 0, "CLASSIFICATION_TYPE": "U", "NORAD_CAT_ID": 25757, "ELEMENT_SET_NO": 999, "REV_AT_EPOCH": 40563, "BSTAR": 6.9656761e-05, "MEAN_MOTION_DOT": 2.35e-06, "MEAN_MOTION_DDOT": 0}, "tle": {"line1": "1 25757U 99029B   25342.94535329  .00000235  00000+0  69657-4 0  9997", "line2": "2 25757  98.6560 327.3421 0013685 204.6549 155.3993 14.52355241405632"}}, "geometry": {"type": "Point", "coordinates": [118.32912085495903, -72.8047558282147]}}, {"type": "Feature", "properties": {"norad_id": 25994, "name": "TERRA", "group": "resource", "lat": -35.826340546974286, "lon": -150.594435014918, "alt_km": 697.3704516125972, "timestamp": "2025-12-09T09:46:47.303364+00:00", "meta": {"OBJECT_NAME": "TERRA", "OBJECT_ID": "1999-068A", "EPOCH": "2025-12-08T21:49:22.179936", "MEAN_MOTION": 14.60945359, "ECCENTRICITY": 0.00035285, "INCLINATION": 97.9753, "RA_OF_ASC_NODE": 34.7344, "ARG_OF_PERICENTER": 105.487, "MEAN_ANOMALY": 11.8952, "EPHEMERIS_TYPE": 0, "CLASSIFICATION_TYPE": "U", "NORAD_CAT_ID": 25994, "ELEMENT_SET_NO": 999, "REV_AT_EPOCH": 38182, "BSTAR": 0.00017004427, "MEAN_MOTION_DOT": 7.88e-06, "MEAN_MOTION_DDOT": 0}, "tle": {"line1": "1 25994U 99068A   25342.90928449  .00000788  00000+0  17004-3 0  9999", "line2": "2 25994  97.9753  34.7344 0003528 105.4870  11.8952 14.60945359381823"}}, "geometry": {"type": "Point", "coordinates": [-150.594435014918, -35.826340546974286]}}, {"type": "Feature", "properties": {"norad_id": 27004, "name": "MAROC-TUBSAT", "group": "resource", "lat": -29.65916785019636, "lon": -33.84912859969085, "alt_km": 997.1766688182179, "timestamp": "2025-12-09T09:46:47.303376+00:00", "meta": {"OBJECT_NAME": "MAROC-TUBSAT", "OBJECT_ID": "2001-056D", "EPOCH": "2025-12-08T22:49:56.631360", "MEAN_MOTION": 13.70252597, "ECCENTRICITY": 0.0019086, "INCLINATION": 99.7912, "RA_OF_ASC_NODE": 151.33, "ARG_OF_PERICENTER": 270.2151, "MEAN_ANOMALY": 211.0723, "EPHEMERIS_TYPE": 0, "CLASSIFICATION_TYPE": "U", "NORAD_CAT_ID": 27004, "ELEMENT_SET_NO": 999, "REV_AT_EPOCH": 20013, "BSTAR": 3.8422074e-05, "MEAN_MOTION_DOT": -1.3e-07, "MEAN_MOTION_DDOT": 0}, "tle": {"line1": "1 27004U 01056D   25342.95134990 -.00000013  00000+0  38422-4 0  9998", "line2": "2 27004  99.7912 151.3300 0019086 270.2151 211.0723 13.70252597200130"}}, "geometry": {"type": "Point", "coordinates": [-33.84912859969085, -29.65916785019636]}}, {"type": "Feature", "properties": {"norad_id": 27424, "name": "AQUA", "group": "resource", "lat": 77.01846502947835, "lon": -95.6518115102939, "alt_km": 679.555885284648, "timestamp": "2025-12-09T09:46:47.303388+00:00", "meta": {"OBJECT_NAME": "AQUA", "OBJECT_ID": "2002-022A", "EPOCH": "2025-12-08T22:12:56.860704", "MEAN_MOTION": 14.6179407, "ECCENTRICITY": 9.432e-05, "INCLINATION": 98.4033, "RA_OF_ASC_NODE": 303.7428, "ARG_OF_PERICENTER": 114.1667, "MEAN_ANOMALY": 311.798, "EPHEMERIS_TYPE": 0, "CLASSIFICATION_TYPE": "U", "NORAD_CAT_ID": 27424, "ELEMENT_SET_NO": 999, "REV_AT_EPOCH": 25547, "BSTAR": 0.00035762742, "MEAN_MOTION_DOT": 1.736e-05, "MEAN_MOTION_DDOT": 0}, "tle": {"line1": "1 27424U 02022A   25342.92565811  .00001736  00000+0  35763-3 0  9991", "line2": "2 27424  98.4033 303.7428 0000943 114.1667 311.7980 14.61794070255478"}}, "geometry": {"type": "Point", "coordinates": [-95.6518115102939, 77.01846502947835]}}, {"type": "Feature", "properties": {"norad_id": 28051, "name": "IRS-P6 (RESOURCESAT-1)", "group": "resource", "lat": -71.63389829326246, "lon": 178.16570357158528, "alt_km": 757.6579860396705, "timestamp": "2025-12-09T09:46:47.303400+00:00", "meta": {"OBJECT_NAME": "IRS-P6 (RESOURCESAT-1)", "OBJECT_ID": "2003-046A", "EPOCH": "2025-12-09T00:32:32.341920", "MEAN_MOTION": 14.36071884, "ECCENTRICITY": 0.00639032, "INCLINATION": 98.2177, "RA_OF_ASC_NODE": 23.6015, "ARG_OF_PERICENTER": 191.8582, "MEAN_ANOMALY": 232.2748, "EPHEMERIS_TYPE": 0, "CLASSIFICATION_TYPE": "U", "NORAD_CAT_ID": 28051, "ELEMENT_SET_NO": 999, "REV_AT_EPOCH": 15323, "BSTAR": 7.6896636e-05, "MEAN_MOTION_DOT": 1.88e-06, "MEAN_MOTION_DDOT": 0}, "tle": {"line1": "1 28051U 03046A   25343.02259655  .00000188  00000+0  76897-4 0  9997", "line2": "2 28051  98.2177  23.6015 0063903 191.8582 232.2748 14.36071884153238"}}, "geometry": {"type": "Point", "coordinates": [178.16570357158528, -71.63389829326246]}}, {"type": "Feature", "properties": {"norad_id": 28220, "name": "SHIYAN-1 (SY-1)", "group": "resource", "lat": 73.54100522186413, "lon": -107.24144375781589, "alt_km": 477.13103322344887, "timestamp": "2025-12-09T09:46:47.303411+00:00", "meta": {"OBJECT_NAME": "SHIYAN-1 (SY-1)", "OBJECT_ID": "2004-012A", "EPOCH": "2025-12-08T22:19:21.540288", "MEAN_MOTION": 15.27987286, "ECCENTRICITY": 0.00058965, "INCLINATION": 97.8934, "RA_OF_ASC_NODE": 44.2437, "ARG_OF_PERICENTER": 340.0401, "MEAN_ANOMALY": 20.0606, "EPHEMERIS_TYPE": 0, "CLASSIFICATION_TYPE": "U", "NORAD_CAT_ID": 28220, "ELEMENT_SET_NO": 999, "REV_AT_EPOCH": 18198, "BSTAR": 0.0005989172, "MEAN_MOTION_DOT": 0.00016299, "MEAN_MOTION_DDOT": 0}, "tle": {"line1": "1 28220U 04012A   25342.93011042  .00016299  00000+0  59892-3 0  9999", "line2": "2 28220  97.8934  44.2437 0005896 340.0401  20.0606 15.27987286181986"}}, "geometry": {"type": "Point", "coordinates": [-107.24144375781589, 73.54100522186413]}}, {"type": "Feature", "properties": {"norad_id": 28376, "name": "AURA", "group": "resource", "lat": -41.31255493801938, "lon": 106.23073502878303, "alt_km": 697.2556044011935, "timestamp": "2025-12-09T09:46:47.303422+00:00", "meta": {"OBJECT_NAME": "AURA", "OBJECT_ID": "2004-026A", "EPOCH": "2025-12-08T22:54:19.351296", "MEAN_MOTION": 14.60931939, "ECCENTRICITY": 0.00011687, "INCLINATION": 98.318, "RA_OF_ASC_NODE": 293.1635, "ARG_OF_PERICENTER": 93.5434, "MEAN_ANOMALY": 266.59, "EPHEMERIS_TYPE": 0, "CLASSIFICATION_TYPE": "U", "NORAD_CAT_ID": 28376, "ELEMENT_SET_NO": 999, "REV_AT_EPOCH": 13843, "BSTAR": 0.00036076911, "MEAN_MOTION_DOT": 1.719e-05, "MEAN_MOTION_DDOT": 0}, "tle": {"line1": "1 28376U 04026A   25342.95439064  .00001719  00000+0  36077-3 0  9997", "line2": "2 28376  98.3180 293.1635 0001168  93.5434 266.5900 14.60931939138432"}}, "geometry": {"type": "Point", "coordinates": [106.23073502878303, -41.31255493801938]}}]}